[
  {
    "OBJECT_NAME": "STARLINK-32378",
    "OBJECT_ID": "24164Q",
    "EPOCH": "2025-11-11T04:25:44.825376",
    "MEAN_MOTION": 15.30192712,
    "ECCENTRICITY": 0.0001445,
    "INCLINATION": 53.1604,
    "RA_OF_ASC_NODE": 281.5796,
    "ARG_OF_PERICENTER": 85.3543,
    "MEAN_ANOMALY": 274.7622,
    "EPHEMERIS_TYPE": 0,
    "CLASSIFICATION_TYPE": "U",
    "NORAD_CAT_ID": 61064,
    "ELEMENT_SET_NO": 999,
    "REV_AT_EPOCH": 6533,
    "BSTAR": 8.7249e-05,
    "MEAN_MOTION_DOT": 2.225e-05,
    "MEAN_MOTION_DDOT": 0.0,
    "TLE_LINE1": "1 61064U 24164Q   25315.18454659  .00002225  00000+0  87249-4 0  9996",
    "TLE_LINE2": "2 61064  53.1604 281.5796 0001445  85.3543 274.7622 15.30192712 65336",
    "COMMENT": "Grouped by shell and plane from TLE"
  },
  {
    "OBJECT_NAME": "STARLINK-32321",
    "OBJECT_ID": "24164R",
    "EPOCH": "2025-11-11T04:39:27.456192",
    "MEAN_MOTION": 15.30178781,
    "ECCENTRICITY": 0.0001499,
    "INCLINATION": 53.1616,
    "RA_OF_ASC_NODE": 281.644,
    "ARG_OF_PERICENTER": 80.5454,
    "MEAN_ANOMALY": 279.5716,
    "EPHEMERIS_TYPE": 0,
    "CLASSIFICATION_TYPE": "U",
    "NORAD_CAT_ID": 61065,
    "ELEMENT_SET_NO": 999,
    "REV_AT_EPOCH": 6533,
    "BSTAR": 0.0,
    "MEAN_MOTION_DOT": -4.42e-06,
    "MEAN_MOTION_DDOT": 0.0,
    "TLE_LINE1": "1 61065U 24164R   25315.19406778 -.00000442  00000+0 -27797-5 0  9991",
    "TLE_LINE2": "2 61065  53.1616 281.6440 0001499  80.5454 279.5716 15.30178781 65331",
    "COMMENT": "Grouped by shell and plane from TLE"
  },
  {
    "OBJECT_NAME": "STARLINK-32381",
    "OBJECT_ID": "24164S",
    "EPOCH": "2025-11-11T06:28:40.410624",
    "MEAN_MOTION": 15.30219944,
    "ECCENTRICITY": 0.0001351,
    "INCLINATION": 53.1596,
    "RA_OF_ASC_NODE": 281.4007,
    "ARG_OF_PERICENTER": 93.9289,
    "MEAN_ANOMALY": 266.1867,
    "EPHEMERIS_TYPE": 0,
    "CLASSIFICATION_TYPE": "U",
    "NORAD_CAT_ID": 61066,
    "ELEMENT_SET_NO": 999,
    "REV_AT_EPOCH": 6534,
    "BSTAR": 0.00040322000000000003,
    "MEAN_MOTION_DOT": 0.00011609,
    "MEAN_MOTION_DDOT": 0.0,
    "TLE_LINE1": "1 61066U 24164S   25315.26991216  .00011609  00000+0  40322-3 0  9998",
    "TLE_LINE2": "2 61066  53.1596 281.4007 0001351  93.9289 266.1867 15.30219944 65344",
    "COMMENT": "Grouped by shell and plane from TLE"
  },
  {
    "OBJECT_NAME": "STARLINK-32385",
    "OBJECT_ID": "24164U",
    "EPOCH": "2025-11-11T04:34:54.350976",
    "MEAN_MOTION": 15.30155399,
    "ECCENTRICITY": 0.0001314,
    "INCLINATION": 53.16,
    "RA_OF_ASC_NODE": 281.62,
    "ARG_OF_PERICENTER": 90.6417,
    "MEAN_ANOMALY": 269.4734,
    "EPHEMERIS_TYPE": 0,
    "CLASSIFICATION_TYPE": "U",
    "NORAD_CAT_ID": 61068,
    "ELEMENT_SET_NO": 999,
    "REV_AT_EPOCH": 6533,
    "BSTAR": 0.0,
    "MEAN_MOTION_DOT": -6.055e-05,
    "MEAN_MOTION_DDOT": 0.0,
    "TLE_LINE1": "1 61068U 24164U   25315.19090684 -.00006055  00000+0 -19275-3 0  9995",
    "TLE_LINE2": "2 61068  53.1600 281.6200 0001314  90.6417 269.4734 15.30155399 65336",
    "COMMENT": "Grouped by shell and plane from TLE"
  },
  {
    "OBJECT_NAME": "STARLINK-32380",
    "OBJECT_ID": "24164V",
    "EPOCH": "2025-11-11T04:30:18.533664",
    "MEAN_MOTION": 15.30202739,
    "ECCENTRICITY": 0.0001311,
    "INCLINATION": 53.1599,
    "RA_OF_ASC_NODE": 281.5984,
    "ARG_OF_PERICENTER": 75.5121,
    "MEAN_ANOMALY": 284.6025,
    "EPHEMERIS_TYPE": 0,
    "CLASSIFICATION_TYPE": "U",
    "NORAD_CAT_ID": 61069,
    "ELEMENT_SET_NO": 999,
    "REV_AT_EPOCH": 6533,
    "BSTAR": 9.984100000000001e-05,
    "MEAN_MOTION_DOT": 2.599e-05,
    "MEAN_MOTION_DDOT": 0.0,
    "TLE_LINE1": "1 61069U 24164V   25315.18771451  .00002599  00000+0  99841-4 0  9998",
    "TLE_LINE2": "2 61069  53.1599 281.5984 0001311  75.5121 284.6025 15.30202739 65336",
    "COMMENT": "Grouped by shell and plane from TLE"
  },
  {
    "OBJECT_NAME": "STARLINK-32375",
    "OBJECT_ID": "24164W",
    "EPOCH": "2025-11-11T04:43:58.971648",
    "MEAN_MOTION": 15.30190149,
    "ECCENTRICITY": 0.0001154,
    "INCLINATION": 53.1598,
    "RA_OF_ASC_NODE": 281.6559,
    "ARG_OF_PERICENTER": 83.117,
    "MEAN_ANOMALY": 276.9962,
    "EPHEMERIS_TYPE": 0,
    "CLASSIFICATION_TYPE": "U",
    "NORAD_CAT_ID": 61070,
    "ELEMENT_SET_NO": 999,
    "REV_AT_EPOCH": 6533,
    "BSTAR": 0.00013200999999999998,
    "MEAN_MOTION_DOT": 3.551e-05,
    "MEAN_MOTION_DDOT": 0.0,
    "TLE_LINE1": "1 61070U 24164W   25315.19721032  .00003551  00000+0  13201-3 0  9995",
    "TLE_LINE2": "2 61070  53.1598 281.6559 0001154  83.1170 276.9962 15.30190149 65335",
    "COMMENT": "Grouped by shell and plane from TLE"
  },
  {
    "OBJECT_NAME": "STARLINK-32238",
    "OBJECT_ID": "24193A",
    "EPOCH": "2025-11-11T06:31:39.888480",
    "MEAN_MOTION": 15.3020958,
    "ECCENTRICITY": 0.0001387,
    "INCLINATION": 53.1622,
    "RA_OF_ASC_NODE": 281.2423,
    "ARG_OF_PERICENTER": 83.3345,
    "MEAN_ANOMALY": 276.7814,
    "EPHEMERIS_TYPE": 0,
    "CLASSIFICATION_TYPE": "U",
    "NORAD_CAT_ID": 61661,
    "ELEMENT_SET_NO": 999,
    "REV_AT_EPOCH": 5839,
    "BSTAR": 0.00016002,
    "MEAN_MOTION_DOT": 4.384e-05,
    "MEAN_MOTION_DDOT": 0.0,
    "TLE_LINE1": "1 61661U 24193A   25315.27198945  .00004384  00000+0  16002-3 0  9990",
    "TLE_LINE2": "2 61661  53.1622 281.2423 0001387  83.3345 276.7814 15.30209580 58391",
    "COMMENT": "Grouped by shell and plane from TLE"
  },
  {
    "OBJECT_NAME": "STARLINK-32310",
    "OBJECT_ID": "24193B",
    "EPOCH": "2025-11-11T04:28:44.998752",
    "MEAN_MOTION": 15.30192924,
    "ECCENTRICITY": 0.0001389,
    "INCLINATION": 53.1616,
    "RA_OF_ASC_NODE": 281.4155,
    "ARG_OF_PERICENTER": 87.0463,
    "MEAN_ANOMALY": 273.0697,
    "EPHEMERIS_TYPE": 0,
    "CLASSIFICATION_TYPE": "U",
    "NORAD_CAT_ID": 61662,
    "ELEMENT_SET_NO": 999,
    "REV_AT_EPOCH": 5838,
    "BSTAR": 7.0895e-05,
    "MEAN_MOTION_DOT": 1.741e-05,
    "MEAN_MOTION_DDOT": 0.0,
    "TLE_LINE1": "1 61662U 24193B   25315.18663193  .00001741  00000+0  70895-4 0  9998",
    "TLE_LINE2": "2 61662  53.1616 281.4155 0001389  87.0463 273.0697 15.30192924 58384",
    "COMMENT": "Grouped by shell and plane from TLE"
  },
  {
    "OBJECT_NAME": "STARLINK-32308",
    "OBJECT_ID": "24193C",
    "EPOCH": "2025-11-11T07:00:23.018112",
    "MEAN_MOTION": 15.30202074,
    "ECCENTRICITY": 0.000151,
    "INCLINATION": 53.1607,
    "RA_OF_ASC_NODE": 280.6516,
    "ARG_OF_PERICENTER": 93.7478,
    "MEAN_ANOMALY": 266.3696,
    "EPHEMERIS_TYPE": 0,
    "CLASSIFICATION_TYPE": "U",
    "NORAD_CAT_ID": 61663,
    "ELEMENT_SET_NO": 999,
    "REV_AT_EPOCH": 5840,
    "BSTAR": 0.00010914,
    "MEAN_MOTION_DOT": 2.875e-05,
    "MEAN_MOTION_DDOT": 0.0,
    "TLE_LINE1": "1 61663U 24193C   25315.29193308  .00002875  00000+0  10914-3 0  9991",
    "TLE_LINE2": "2 61663  53.1607 280.6516 0001510  93.7478 266.3696 15.30202074 58408",
    "COMMENT": "Grouped by shell and plane from TLE"
  },
  {
    "OBJECT_NAME": "STARLINK-32301",
    "OBJECT_ID": "24193D",
    "EPOCH": "2025-11-11T06:42:18.715392",
    "MEAN_MOTION": 15.30196786,
    "ECCENTRICITY": 0.0001269,
    "INCLINATION": 53.1614,
    "RA_OF_ASC_NODE": 281.2861,
    "ARG_OF_PERICENTER": 89.7003,
    "MEAN_ANOMALY": 270.4143,
    "EPHEMERIS_TYPE": 0,
    "CLASSIFICATION_TYPE": "U",
    "NORAD_CAT_ID": 61664,
    "ELEMENT_SET_NO": 999,
    "REV_AT_EPOCH": 5839,
    "BSTAR": 4.672e-05,
    "MEAN_MOTION_DOT": 1.025e-05,
    "MEAN_MOTION_DDOT": 0.0,
    "TLE_LINE1": "1 61664U 24193D   25315.27938328  .00001025  00000+0  46720-4 0  9990",
    "TLE_LINE2": "2 61664  53.1614 281.2861 0001269  89.7003 270.4143 15.30196786 58390",
    "COMMENT": "Grouped by shell and plane from TLE"
  },
  {
    "OBJECT_NAME": "STARLINK-32439",
    "OBJECT_ID": "24193E",
    "EPOCH": "2025-11-11T06:49:54.325920",
    "MEAN_MOTION": 15.30214801,
    "ECCENTRICITY": 0.0001717,
    "INCLINATION": 53.1622,
    "RA_OF_ASC_NODE": 281.3133,
    "ARG_OF_PERICENTER": 89.589,
    "MEAN_ANOMALY": 270.5308,
    "EPHEMERIS_TYPE": 0,
    "CLASSIFICATION_TYPE": "U",
    "NORAD_CAT_ID": 61665,
    "ELEMENT_SET_NO": 999,
    "REV_AT_EPOCH": 5839,
    "BSTAR": 0.0,
    "MEAN_MOTION_DOT": -1.28e-05,
    "MEAN_MOTION_DDOT": 0.0,
    "TLE_LINE1": "1 61665U 24193E   25315.28465655 -.00001280  00000+0 -31061-4 0  9997",
    "TLE_LINE2": "2 61665  53.1622 281.3133 0001717  89.5890 270.5308 15.30214801 58396",
    "COMMENT": "Grouped by shell and plane from TLE"
  },
  {
    "OBJECT_NAME": "STARLINK-32428",
    "OBJECT_ID": "24193F",
    "EPOCH": "2025-11-11T04:12:01.590624",
    "MEAN_MOTION": 15.30189537,
    "ECCENTRICITY": 0.000147,
    "INCLINATION": 53.1619,
    "RA_OF_ASC_NODE": 281.3437,
    "ARG_OF_PERICENTER": 84.2604,
    "MEAN_ANOMALY": 275.8565,
    "EPHEMERIS_TYPE": 0,
    "CLASSIFICATION_TYPE": "U",
    "NORAD_CAT_ID": 61666,
    "ELEMENT_SET_NO": 999,
    "REV_AT_EPOCH": 5838,
    "BSTAR": 0.00029222,
    "MEAN_MOTION_DOT": 8.303e-05,
    "MEAN_MOTION_DDOT": 0.0,
    "TLE_LINE1": "1 61666U 24193F   25315.17501841  .00008303  00000+0  29222-3 0  9990",
    "TLE_LINE2": "2 61666  53.1619 281.3437 0001470  84.2604 275.8565 15.30189537 58380",
    "COMMENT": "Grouped by shell and plane from TLE"
  },
  {
    "OBJECT_NAME": "STARLINK-32414",
    "OBJECT_ID": "24193G",
    "EPOCH": "2025-11-11T06:33:11.123424",
    "MEAN_MOTION": 15.30204098,
    "ECCENTRICITY": 0.0001134,
    "INCLINATION": 53.1597,
    "RA_OF_ASC_NODE": 281.2453,
    "ARG_OF_PERICENTER": 85.4211,
    "MEAN_ANOMALY": 274.6919,
    "EPHEMERIS_TYPE": 0,
    "CLASSIFICATION_TYPE": "U",
    "NORAD_CAT_ID": 61667,
    "ELEMENT_SET_NO": 999,
    "REV_AT_EPOCH": 5839,
    "BSTAR": 9.070000000000001e-05,
    "MEAN_MOTION_DOT": 2.328e-05,
    "MEAN_MOTION_DDOT": 0.0,
    "TLE_LINE1": "1 61667U 24193G   25315.27304541  .00002328  00000+0  90700-4 0  9991",
    "TLE_LINE2": "2 61667  53.1597 281.2453 0001134  85.4211 274.6919 15.30204098 58398",
    "COMMENT": "Grouped by shell and plane from TLE"
  }
]